{"type": "FeatureCollection", "features": [ {"type": "Feature", "properties": {"norad_id": 66737, "name": "FLOCK 4H-34", "group": "last-30-days", "lat": 61.77991990333175, "lon": 53.703027365515965, "alt_km": 506.0362493144394, "timestamp": "2025-12-22T04:03:37.887086+00:00", "meta": {"OBJECT_NAME": "FLOCK 4H-34", "OBJECT_ID": "2025-276BZ", "EPOCH": "2025-12-21T18:17:37.874688", "MEAN_MOTION": 15.18133706, "ECCENTRICITY": 0.0002441, "INCLINATION": 97.4443, "RA_OF_ASC_NODE": 67.4048, "ARG_OF_PERICENTER": 173.4433, "MEAN_ANOMALY": 186.6833, "EPHEMERIS_TYPE": 0, "CLASSIFICATION_TYPE": "U", "NORAD_CAT_ID": 66737, "ELEMENT_SET_NO": 999, "REV_AT_EPOCH": 274, "BSTAR": 0.00035503, "MEAN_MOTION_DOT": 7.181e-05, "MEAN_MOTION_DDOT": 0}, "tle": {"line1": "1 66737U 25276BZ  25355.76224392  .00007181  00000+0  35503-3 0  9991", "line2": "2 66737  97.4443  67.4048 0002441 173.4433 186.6833 15.18133706  2740"}}, "geometry": {"type": "Point", "coordinates": [53.703027365515965, 61.77991990333175]}}, {"type": "Feature", "properties": {"norad_id": 66738, "name": "FLOCK 4H-35", "group": "last-30-days", "lat": 70.04025637958243, "lon": 46.70710689551768, "alt_km": 504.2041448337977, "timestamp": "2025-12-22T04:03:37.887096+00:00", "meta": {"OBJECT_NAME": "FLOCK 4H-35", "OBJECT_ID": "2025-276CA", "EPOCH": "2025-12-21T16:40:28.210080", "MEAN_MOTION": 15.1823484, "ECCENTRICITY": 0.0002184, "INCLINATION": 97.4402, "RA_OF_ASC_NODE": 67.3304, "ARG_OF_PERICENTER": 156.4791, "MEAN_ANOMALY": 203.6543, "EPHEMERIS_TYPE": 0, "CLASSIFICATION_TYPE": "U", "NORAD_CAT_ID": 66738, "ELEMENT_SET_NO": 999, "REV_AT_EPOCH": 277, "BSTAR": 0.00057325, "MEAN_MOTION_DOT": 0.00011677, "MEAN_MOTION_DDOT": 0}, "tle": {"line1": "1 66738U 25276CA  25355.69477095  .00011677  00000+0  57325-3 0  9995", "line2": "2 66738  97.4402  67.3304 0002184 156.4791 203.6543 15.18234840  2774"}}, "geometry": {"type": "Point", "coordinates": [46.70710689551768, 70.04025637958243]}}, {"type": "Feature", "properties": {"norad_id": 66739, "name": "FLOCK 4H-36", "group": "last-30-days", "lat": 49.348224371737075, "lon": 59.04294774617211, "alt_km": 508.6726505612205, "timestamp": "2025-12-22T04:03:37.887110+00:00", "meta": {"OBJECT_NAME": "FLOCK 4H-36", "OBJECT_ID": "2025-276CB", "EPOCH": "2025-12-21T18:20:56.180832", "MEAN_MOTION": 15.17977358, "ECCENTRICITY": 0.0002278, "INCLINATION": 97.4454, "RA_OF_ASC_NODE": 67.405, "ARG_OF_PERICENTER": 189.2497, "MEAN_ANOMALY": 170.8695, "EPHEMERIS_TYPE": 0, "CLASSIFICATION_TYPE": "U", "NORAD_CAT_ID": 66739, "ELEMENT_SET_NO": 999, "REV_AT_EPOCH": 349, "BSTAR": 0.00041744, "MEAN_MOTION_DOT": 8.419e-05, "MEAN_MOTION_DDOT": 0}, "tle": {"line1": "1 66739U 25276CB  25355.76453913  .00008419  00000+0  41744-3 0  9995", "line2": "2 66739  97.4454  67.4050 0002278 189.2497 170.8695 15.17977358  3492"}}, "geometry": {"type": "Point", "coordinates": [59.04294774617211, 49.348224371737075]}}, {"type": "Feature", "properties": {"norad_id": 66740, "name": "TRANSPORTER-15 CC", "group": "last-30-days", "lat": 24.311340992106096, "lon": 64.3984269019844, "alt_km": 513.4185011260461, "timestamp": "2025-12-22T04:03:37.887122+00:00", "meta": {"OBJECT_NAME": "TRANSPORTER-15 CC", "OBJECT_ID": "2025-276CC", "EPOCH": "2025-12-21T18:27:31.013280", "MEAN_MOTION": 15.17691202, "ECCENTRICITY": 0.0002104, "INCLINATION": 97.4417, "RA_OF_ASC_NODE": 67.3904, "ARG_OF_PERICENTER": 243.3749, "MEAN_ANOMALY": 116.727, "EPHEMERIS_TYPE": 0, "CLASSIFICATION_TYPE": "U", "NORAD_CAT_ID": 66740, "ELEMENT_SET_NO": 999, "REV_AT_EPOCH": 349, "BSTAR": 0.00042754, "MEAN_MOTION_DOT": 8.554e-05, "MEAN_MOTION_DDOT": 0}, "tle": {"line1": "1 66740U 25276CC  25355.76910895  .00008554  00000+0  42754-3 0  9996", "line2": "2 66740  97.4417  67.3904 0002104 243.3749 116.7270 15.17691202  3499"}}, "geometry": {"type": "Point", "coordinates": [64.3984269019844, 24.311340992106096]}}, {"type": "Feature", "properties": {"norad_id": 66741, "name": "TRANSPORTER-15 CD", "group": "last-30-days", "lat": 6.4387199784072555, "lon": 66.92410313933738, "alt_km": 527.5313911093926, "timestamp": "2025-12-22T04:03:37.887132+00:00", "meta": {"OBJECT_NAME": "TRANSPORTER-15 CD", "OBJECT_ID": "2025-276CD", "EPOCH": "2025-12-20T15:35:26.593440", "MEAN_MOTION": 15.16370519, "ECCENTRICITY": 0.00149164, "INCLINATION": 97.4418, "RA_OF_ASC_NODE": 66.2803, "ARG_OF_PERICENTER": 254.9889, "MEAN_ANOMALY": 104.9694, "EPHEMERIS_TYPE": 0, "CLASSIFICATION_TYPE": "U", "NORAD_CAT_ID": 66741, "ELEMENT_SET_NO": 999, "REV_AT_EPOCH": 332, "BSTAR": -0.021786228, "MEAN_MOTION_DOT": -0.00401721, "MEAN_MOTION_DDOT": 0}, "tle": {"line1": "1 66741U 25276CD  25354.64961335 -.00401721  00000+0 -21786-1 0  9993", "line2": "2 66741  97.4418  66.2803 0014916 254.9889 104.9694 15.16370519  3329"}}, "geometry": {"type": "Point", "coordinates": [66.92410313933738, 6.4387199784072555]}}, {"type": "Feature", "properties": {"norad_id": 66742, "name": "TRANSPORTER-15 CE", "group": "last-30-days", "lat": 27.346976429919877, "lon": 63.89873170674246, "alt_km": 512.8423005910772, "timestamp": "2025-12-22T04:03:37.887143+00:00", "meta": {"OBJECT_NAME": "TRANSPORTER-15 CE", "OBJECT_ID": "2025-276CE", "EPOCH": "2025-12-21T20:01:38.796384", "MEAN_MOTION": 15.1768355, "ECCENTRICITY": 0.0001547, "INCLINATION": 97.4409, "RA_OF_ASC_NODE": 67.4455, "ARG_OF_PERICENTER": 194.754, "MEAN_ANOMALY": 165.3649, "EPHEMERIS_TYPE": 0, "CLASSIFICATION_TYPE": "U", "NORAD_CAT_ID": 66742, "ELEMENT_SET_NO": 999, "REV_AT_EPOCH": 350, "BSTAR": 0.00030324, "MEAN_MOTION_DOT": 6.044e-05, "MEAN_MOTION_DDOT": 0}, "tle": {"line1": "1 66742U 25276CE  25355.83447681  .00006044  00000+0  30324-3 0  9996", "line2": "2 66742  97.4409  67.4455 0001547 194.7540 165.3649 15.17683550  3501"}}, "geometry": {"type": "Point", "coordinates": [63.89873170674246, 27.346976429919877]}}, {"type": "Feature", "properties": {"norad_id": 66743, "name": "TRANSPORTER-15 CF", "group": "last-30-days", "lat": 8.550009359935034, "lon": 66.64037140680918, "alt_km": 515.5015872023432, "timestamp": "2025-12-22T04:03:37.887153+00:00", "meta": {"OBJECT_NAME": "TRANSPORTER-15 CF", "OBJECT_ID": "2025-276CF", "EPOCH": "2025-12-21T18:31:38.139744", "MEAN_MOTION": 15.17492309, "ECCENTRICITY": 4.96e-05, "INCLINATION": 97.4408, "RA_OF_ASC_NODE": 67.376, "ARG_OF_PERICENTER": 245.3816, "MEAN_ANOMALY": 114.7366, "EPHEMERIS_TYPE": 0, "CLASSIFICATION_TYPE": "U", "NORAD_CAT_ID": 66743, "ELEMENT_SET_NO": 999, "REV_AT_EPOCH": 349, "BSTAR": 0.00040244, "MEAN_MOTION_DOT": 8.001e-05, "MEAN_MOTION_DDOT": 0}, "tle": {"line1": "1 66743U 25276CF  25355.77196921  .00008001  00000+0  40244-3 0  9995", "line2": "2 66743  97.4408  67.3760 0000496 245.3816 114.7366 15.17492309  3492"}}, "geometry": {"type": "Point", "coordinates": [66.64037140680918, 8.550009359935034]}}, {"type": "Feature", "properties": {"norad_id": 66744, "name": "TRANSPORTER-15 CG", "group": "last-30-days", "lat": 2.4462725543116135, "lon": 67.44978400363597, "alt_km": 515.9656372630579, "timestamp": "2025-12-22T04:03:37.887163+00:00", "meta": {"OBJECT_NAME": "TRANSPORTER-15 CG", "OBJECT_ID": "2025-276CG", "EPOCH": "2025-12-21T16:58:29.137152", "MEAN_MOTION": 15.17770931, "ECCENTRICITY": 0.0005788, "INCLINATION": 97.4418, "RA_OF_ASC_NODE": 67.3156, "ARG_OF_PERICENTER": 115.372, "MEAN_ANOMALY": 244.8113, "EPHEMERIS_TYPE": 0, "CLASSIFICATION_TYPE": "U", "NORAD_CAT_ID": 66744, "ELEMENT_SET_NO": 999, "REV_AT_EPOCH": 348, "BSTAR": 0.014734, "MEAN_MOTION_DOT": 0.00310324, "MEAN_MOTION_DDOT": 0}, "tle": {"line1": "1 66744U 25276CG  25355.70728168  .00310324  00000+0  14734-1 0  9990", "line2": "2 66744  97.4418  67.3156 0005788 115.3720 244.8113 15.17770931  3486"}}, "geometry": {"type": "Point", "coordinates": [67.44978400363597, 2.4462725543116135]}}, {"type": "Feature", "properties": {"norad_id": 66745, "name": "TRANSPORTER-15 CH", "group": "last-30-days", "lat": 7.31116585288778, "lon": 66.80834533011084, "alt_km": 516.1605505247235, "timestamp": "2025-12-22T04:03:37.887173+00:00", "meta": {"OBJECT_NAME": "TRANSPORTER-15 CH", "OBJECT_ID": "2025-276CH", "EPOCH": "2025-12-21T10:37:08.588928", "MEAN_MOTION": 15.17413213, "ECCENTRICITY": 0.00013964, "INCLINATION": 97.4419, "RA_OF_ASC_NODE": 67.0553, "ARG_OF_PERICENTER": 252.4591, "MEAN_ANOMALY": 107.649, "EPHEMERIS_TYPE": 0, "CLASSIFICATION_TYPE": "U", "NORAD_CAT_ID": 66745, "ELEMENT_SET_NO": 999, "REV_AT_EPOCH": 344, "BSTAR": 0.00033002421, "MEAN_MOTION_DOT": 6.533e-05, "MEAN_MOTION_DDOT": 0}, "tle": {"line1": "1 66745U 25276CH  25355.44246052  .00006533  00000+0  33002-3 0  9994", "line2": "2 66745  97.4419  67.0553 0001396 252.4591 107.6490 15.17413213  3443"}}, "geometry": {"type": "Point", "coordinates": [66.80834533011084, 7.31116585288778]}}, {"type": "Feature", "properties": {"norad_id": 66746, "name": "TRANSPORTER-15 CJ", "group": "last-30-days", "lat": 9.26142014886264, "lon": 66.54928973852265, "alt_km": 515.9505587454651, "timestamp": "2025-12-22T04:03:37.887183+00:00", "meta": {"OBJECT_NAME": "TRANSPORTER-15 CJ", "OBJECT_ID": "2025-276CJ", "EPOCH": "2025-12-19T04:48:03.204576", "MEAN_MOTION": 15.17416472, "ECCENTRICITY": 9.628e-05, "INCLINATION": 97.4422, "RA_OF_ASC_NODE": 64.8535, "ARG_OF_PERICENTER": 234.0891, "MEAN_ANOMALY": 126.0254, "EPHEMERIS_TYPE": 0, "CLASSIFICATION_TYPE": "U", "NORAD_CAT_ID": 66746, "ELEMENT_SET_NO": 999, "REV_AT_EPOCH": 310, "BSTAR": 0.00013979791, "MEAN_MOTION_DOT": 2.728e-05, "MEAN_MOTION_DDOT": 0}, "tle": {"line1": "1 66746U 25276CJ  25353.20003709  .00002728  00000+0  13980-3 0  9992", "line2": "2 66746  97.4422  64.8535 0000962 234.0891 126.0254 15.17416472  3106"}}, "geometry": {"type": "Point", "coordinates": [66.54928973852265, 9.26142014886264]}}]}